0 COSMOS 1929
1 18942U 88016F   13282.10165059 -.00000014  00000-0  14613-4 0  2493
2 18942 074.0053 238.6945 0020710 334.2711 153.3621 12.54736305171852
0 COSMOS 1929
1 18942U 88016F   13284.17388020 -.00000046  00000-0 -18638-3 0  2505
2 18942 074.0056 235.9121 0020740 331.2339 153.6276 12.54736511172115
0 COSMOS 1929
1 18942U 88016F   13286.33603045 -.00000043  00000-0 -16727-3 0  2517
2 18942 074.0060 233.0089 0020769 328.0757 200.0563 12.54736413172387
0 COSMOS 1929
1 18942U 88016F   13288.78891586 -.00000001  00000-0  96298-4 0  2523
2 18942 074.0064 229.7157 0020792 324.4698 119.7590 12.54736094172694
0 COSMOS 1929
1 18942U 88016F   13291.17623041  .00000025  00000-0  25321-3 0  2533
2 18942 074.0064 226.5107 0020807 320.9372 103.2988 12.54736033172996
0 COSMOS 1929
1 18942U 88016F   13293.17874740  .00000017  00000-0  20265-3 0  2543
2 18942 074.0063 223.8224 0020826 318.0049 148.6688 12.54736203173243
0 COSMOS 1929
1 18942U 88016F   13295.49369334 -.00000020  00000-0 -25935-4 0  2555
2 18942 074.0063 220.7146 0020844 314.6595 165.2364 12.54736524173534
